ONEWEB-0533             
1 55141U 23004B   23317.89880294 -.00000221  00000+0 -64991-3 0  9997
2 55141  87.9100 178.7902 0001691  72.8153 287.3161 13.12444073 43936
ONEWEB-0541             
1 55142U 23004C   23318.10368224 -.00000232  00000+0 -68971-3 0  9991
2 55142  87.8995 209.0339 0001771  77.0820 283.0505 13.11416421 41957
ONEWEB-0543             
1 55143U 23004D   23318.58334491  .00000014  00000+0  00000+0 0  9994
2 55143  87.8475 163.7192 0002093 225.0596 210.8621 13.42706622 45047
ONEWEB-0544             
1 55144U 23004E   23318.58334491  .00000014  00000+0  00000+0 0  9995
2 55144  87.8515 163.7016 0000022 290.2963 328.4918 13.41326715 45056
ONEWEB-0560             
1 55145U 23004F   23318.58334491  .00000014  00000+0  00000+0 0  9996
2 55145  87.8366 163.6152 0000532  19.7291 229.1901 13.42390858 45065
ONEWEB-0565             
1 55146U 23004G   23318.58334491  .00000014  00000+0  00000+0 0  9997
2 55146  87.8507 163.7206 0001330 147.3261 261.7049 13.41116749 45054
ONEWEB-0567             
1 55147U 23004H   23318.58334491  .00000014  00000+0  00000+0 0  9998
2 55147  87.8537 163.6759 0001469 274.4813 299.8624 13.41074962 45048
ONEWEB-0569             
1 55148U 23004J   23317.84404298  .00001288  00000+0  22908-3 0  9999
2 55148  86.5329 155.9933 0000546 312.0345  48.0822 14.66399862 45328
